HULIANWANG DIGUI-17     
1 62977U 25030G   26065.79078097 -.00000094  00000+0  65498-4 0  9996
2 62977  50.0046 242.8234 0000758 162.6244 197.4655 13.29338260 52245
HULIANWANG DIGUI-18     
1 62978U 25030H   26065.78240777 -.00000091  00000+0  70307-4 0  9994
2 62978  50.0051 242.7900 0000786 163.7978 196.2920 13.29338332 52240
HULIANWANG DIGUI-19     
1 62979U 25030J   26065.81561475 -.00000093  00000+0  66643-4 0  9990
2 62979  50.0036 242.9185 0000818 158.2203 201.8704 13.29341531 52245
HULIANWANG DIGUI-20     
1 63687U 25086A   26065.80803097  .00000078  00000+0  14749-3 0  9997
2 63687  86.5125 347.6079 0001769  91.4807 268.6530 13.24420270 41322
HULIANWANG DIGUI-21     
1 63688U 25086B   26065.81552130  .00000074  00000+0  13748-3 0  9992
2 63688  86.5153 347.6351 0001664  94.5917 265.5407 13.24421886 41319
HULIANWANG DIGUI-22     
1 63689U 25086C   26065.82308558  .00000060  00000+0  10505-3 0  9990
2 63689  86.5118 347.5351 0001835  91.5942 268.5402 13.24421616 41314
HULIANWANG DIGUI-23     
1 63690U 25086D   26065.83814237  .00000051  00000+0  83618-4 0  9995
2 63690  86.5160 347.6672 0001760  87.8953 272.2383 13.24422430 41312
HULIANWANG DIGUI-24     
1 63691U 25086E   26065.84575678  .00000058  00000+0  10095-3 0  9995
2 63691  86.5167 347.6914 0001807  92.3115 267.8226 13.24420545 41313
HULIANWANG DIGUI-25     
1 63692U 25086F   26065.85328701  .00000058  00000+0  10029-3 0  9997
2 63692  86.5105 347.5098 0001702  91.3158 268.8171 13.24421935 41312
HULIANWANG DIGUI-26     
1 63693U 25086G   26065.83051564  .00000050  00000+0  81366-4 0  9991
2 63693  86.5154 347.6446 0001790  96.1756 263.9582 13.24421417 41316
HULIANWANG DIGUI-27     
1 63694U 25086H   26065.63427935  .00000074  00000+0  13741-3 0  9996
2 63694  86.5115 347.6181 0001808  91.1182 269.0159 13.24420266 41282
HULIANWANG DIGUI-28     
1 63695U 25086J   26065.80040572  .00000082  00000+0  15716-3 0  9997
2 63695  86.5079 347.4662 0001817  91.0859 269.0483 13.24421567 41302
HULIANWANG DIGUI-29     
1 63696U 25086K   26065.79293073  .00000075  00000+0  14024-3 0  9995
2 63696  86.5107 347.5492 0001702  91.8585 268.2744 13.24420419 41300
HULIANWANG DIGUI-30     
1 64283U 25121A   26065.87584384  .00000031  00000+0  39050-4 0  9994
2 64283  86.4951  48.0740 0001991  77.8480 282.2877 13.24423426 36618
HULIANWANG DIGUI-31     
1 64284U 25121B   26065.79296824  .00000027  00000+0  29697-4 0  9996
2 64284  86.4971  48.1529 0002010  78.2675 281.8685 13.24419643 36608
HULIANWANG DIGUI-32     
1 64285U 25121C   26065.78505106  .00000048  00000+0  76596-4 0  9995
2 64285  86.4913  47.9841 0002009  80.2808 279.8552 13.24425433 36602
