[{"OBJECT_NAME":"HULIANWANG DIGUI-17","OBJECT_ID":"2025-030G","EPOCH":"2026-03-06T18:58:43.475808","MEAN_MOTION":13.2933826,"ECCENTRICITY":7.58e-5,"INCLINATION":50.0046,"RA_OF_ASC_NODE":242.8234,"ARG_OF_PERICENTER":162.6244,"MEAN_ANOMALY":197.4655,"EPHEMERIS_TYPE":0,"CLASSIFICATION_TYPE":"U","NORAD_CAT_ID":62977,"ELEMENT_SET_NO":999,"REV_AT_EPOCH":5224,"BSTAR":6.5498e-5,"MEAN_MOTION_DOT":-9.4e-7,"MEAN_MOTION_DDOT":0},{"OBJECT_NAME":"HULIANWANG DIGUI-18","OBJECT_ID":"2025-030H","EPOCH":"2026-03-06T18:46:40.031328","MEAN_MOTION":13.29338332,"ECCENTRICITY":7.86e-5,"INCLINATION":50.0051,"RA_OF_ASC_NODE":242.79,"ARG_OF_PERICENTER":163.7978,"MEAN_ANOMALY":196.292,"EPHEMERIS_TYPE":0,"CLASSIFICATION_TYPE":"U","NORAD_CAT_ID":62978,"ELEMENT_SET_NO":999,"REV_AT_EPOCH":5224,"BSTAR":7.0307e-5,"MEAN_MOTION_DOT":-9.1e-7,"MEAN_MOTION_DDOT":0},{"OBJECT_NAME":"HULIANWANG DIGUI-19","OBJECT_ID":"2025-030J","EPOCH":"2026-03-06T19:34:29.114400","MEAN_MOTION":13.29341531,"ECCENTRICITY":8.18e-5,"INCLINATION":50.0036,"RA_OF_ASC_NODE":242.9185,"ARG_OF_PERICENTER":158.2203,"MEAN_ANOMALY":201.8704,"EPHEMERIS_TYPE":0,"CLASSIFICATION_TYPE":"U","NORAD_CAT_ID":62979,"ELEMENT_SET_NO":999,"REV_AT_EPOCH":5224,"BSTAR":6.6643e-5,"MEAN_MOTION_DOT":-9.3e-7,"MEAN_MOTION_DDOT":0},{"OBJECT_NAME":"HULIANWANG DIGUI-20","OBJECT_ID":"2025-086A","EPOCH":"2026-03-06T19:23:33.875808","MEAN_MOTION":13.2442027,"ECCENTRICITY":0.0001769,"INCLINATION":86.5125,"RA_OF_ASC_NODE":347.6079,"ARG_OF_PERICENTER":91.4807,"MEAN_ANOMALY":268.653,"EPHEMERIS_TYPE":0,"CLASSIFICATION_TYPE":"U","NORAD_CAT_ID":63687,"ELEMENT_SET_NO":999,"REV_AT_EPOCH":4132,"BSTAR":0.00014749,"MEAN_MOTION_DOT":7.8e-7,"MEAN_MOTION_DDOT":0},{"OBJECT_NAME":"HULIANWANG DIGUI-21","OBJECT_ID":"2025-086B","EPOCH":"2026-03-06T19:34:21.040320","MEAN_MOTION":13.24421886,"ECCENTRICITY":0.0001664,"INCLINATION":86.5153,"RA_OF_ASC_NODE":347.6351,"ARG_OF_PERICENTER":94.5917,"MEAN_ANOMALY":265.5407,"EPHEMERIS_TYPE":0,"CLASSIFICATION_TYPE":"U","NORAD_CAT_ID":63688,"ELEMENT_SET_NO":999,"REV_AT_EPOCH":4131,"BSTAR":0.00013748,"MEAN_MOTION_DOT":7.4e-7,"MEAN_MOTION_DDOT":0},{"OBJECT_NAME":"HULIANWANG DIGUI-22","OBJECT_ID":"2025-086C","EPOCH":"2026-03-06T19:45:14.594112","MEAN_MOTION":13.24421616,"ECCENTRICITY":0.0001835,"INCLINATION":86.5118,"RA_OF_ASC_NODE":347.5351,"ARG_OF_PERICENTER":91.5942,"MEAN_ANOMALY":268.5402,"EPHEMERIS_TYPE":0,"CLASSIFICATION_TYPE":"U","NORAD_CAT_ID":63689,"ELEMENT_SET_NO":999,"REV_AT_EPOCH":4131,"BSTAR":0.00010505,"MEAN_MOTION_DOT":6.0e-7,"MEAN_MOTION_DDOT":0},{"OBJECT_NAME":"HULIANWANG DIGUI-23","OBJECT_ID":"2025-086D","EPOCH":"2026-03-06T20:06:55.500768","MEAN_MOTION":13.2442243,"ECCENTRICITY":0.000176,"INCLINATION":86.516,"RA_OF_ASC_NODE":347.6672,"ARG_OF_PERICENTER":87.8953,"MEAN_ANOMALY":272.2383,"EPHEMERIS_TYPE":0,"CLASSIFICATION_TYPE":"U","NORAD_CAT_ID":63690,"ELEMENT_SET_NO":999,"REV_AT_EPOCH":4131,"BSTAR":8.3618e-5,"MEAN_MOTION_DOT":5.1e-7,"MEAN_MOTION_DDOT":0},{"OBJECT_NAME":"HULIANWANG DIGUI-24","OBJECT_ID":"2025-086E","EPOCH":"2026-03-06T20:17:53.385792","MEAN_MOTION":13.24420545,"ECCENTRICITY":0.0001807,"INCLINATION":86.5167,"RA_OF_ASC_NODE":347.6914,"ARG_OF_PERICENTER":92.3115,"MEAN_ANOMALY":267.8226,"EPHEMERIS_TYPE":0,"CLASSIFICATION_TYPE":"U","NORAD_CAT_ID":63691,"ELEMENT_SET_NO":999,"REV_AT_EPOCH":4131,"BSTAR":0.00010095,"MEAN_MOTION_DOT":5.8e-7,"MEAN_MOTION_DDOT":0},{"OBJECT_NAME":"HULIANWANG DIGUI-25","OBJECT_ID":"2025-086F","EPOCH":"2026-03-06T20:28:43.997664","MEAN_MOTION":13.24421935,"ECCENTRICITY":0.0001702,"INCLINATION":86.5105,"RA_OF_ASC_NODE":347.5098,"ARG_OF_PERICENTER":91.3158,"MEAN_ANOMALY":268.8171,"EPHEMERIS_TYPE":0,"CLASSIFICATION_TYPE":"U","NORAD_CAT_ID":63692,"ELEMENT_SET_NO":999,"REV_AT_EPOCH":4131,"BSTAR":0.00010029,"MEAN_MOTION_DOT":5.8e-7,"MEAN_MOTION_DDOT":0},{"OBJECT_NAME":"HULIANWANG DIGUI-26","OBJECT_ID":"2025-086G","EPOCH":"2026-03-06T19:55:56.551296","MEAN_MOTION":13.24421417,"ECCENTRICITY":0.000179,"INCLINATION":86.5154,"RA_OF_ASC_NODE":347.6446,"ARG_OF_PERICENTER":96.1756,"MEAN_ANOMALY":263.9582,"EPHEMERIS_TYPE":0,"CLASSIFICATION_TYPE":"U","NORAD_CAT_ID":63693,"ELEMENT_SET_NO":999,"REV_AT_EPOCH":4131,"BSTAR":8.1366e-5,"MEAN_MOTION_DOT":5.0e-7,"MEAN_MOTION_DDOT":0},{"OBJECT_NAME":"HULIANWANG DIGUI-27","OBJECT_ID":"2025-086H","EPOCH":"2026-03-06T15:13:21.735840","MEAN_MOTION":13.24420266,"ECCENTRICITY":0.00018086,"INCLINATION":86.5115,"RA_OF_ASC_NODE":347.6181,"ARG_OF_PERICENTER":91.1182,"MEAN_ANOMALY":269.0159,"EPHEMERIS_TYPE":0,"CLASSIFICATION_TYPE":"U","NORAD_CAT_ID":63694,"ELEMENT_SET_NO":999,"REV_AT_EPOCH":4128,"BSTAR":0.00013740503,"MEAN_MOTION_DOT":7.4e-7,"MEAN_MOTION_DDOT":0},{"OBJECT_NAME":"HULIANWANG DIGUI-28","OBJECT_ID":"2025-086J","EPOCH":"2026-03-06T19:12:35.054208","MEAN_MOTION":13.24421567,"ECCENTRICITY":0.0001817,"INCLINATION":86.5079,"RA_OF_ASC_NODE":347.4662,"ARG_OF_PERICENTER":91.0859,"MEAN_ANOMALY":269.0483,"EPHEMERIS_TYPE":0,"CLASSIFICATION_TYPE":"U","NORAD_CAT_ID":63695,"ELEMENT_SET_NO":999,"REV_AT_EPOCH":4130,"BSTAR":0.00015716,"MEAN_MOTION_DOT":8.2e-7,"MEAN_MOTION_DDOT":0},{"OBJECT_NAME":"HULIANWANG DIGUI-29","OBJECT_ID":"2025-086K","EPOCH":"2026-03-06T19:01:49.215072","MEAN_MOTION":13.24420419,"ECCENTRICITY":0.0001702,"INCLINATION":86.5107,"RA_OF_ASC_NODE":347.5492,"ARG_OF_PERICENTER":91.8585,"MEAN_ANOMALY":268.2744,"EPHEMERIS_TYPE":0,"CLASSIFICATION_TYPE":"U","NORAD_CAT_ID":63696,"ELEMENT_SET_NO":999,"REV_AT_EPOCH":4130,"BSTAR":0.00014024,"MEAN_MOTION_DOT":7.5e-7,"MEAN_MOTION_DDOT":0},{"OBJECT_NAME":"HULIANWANG DIGUI-30","OBJECT_ID":"2025-121A","EPOCH":"2026-03-06T21:01:12.907776","MEAN_MOTION":13.24423426,"ECCENTRICITY":0.0001991,"INCLINATION":86.4951,"RA_OF_ASC_NODE":48.074,"ARG_OF_PERICENTER":77.848,"MEAN_ANOMALY":282.2877,"EPHEMERIS_TYPE":0,"CLASSIFICATION_TYPE":"U","NORAD_CAT_ID":64283,"ELEMENT_SET_NO":999,"REV_AT_EPOCH":3661,"BSTAR":3.905e-5,"MEAN_MOTION_DOT":3.1e-7,"MEAN_MOTION_DDOT":0},{"OBJECT_NAME":"HULIANWANG DIGUI-31","OBJECT_ID":"2025-121B","EPOCH":"2026-03-06T19:01:52.455936","MEAN_MOTION":13.24419643,"ECCENTRICITY":0.000201,"INCLINATION":86.4971,"RA_OF_ASC_NODE":48.1529,"ARG_OF_PERICENTER":78.2675,"MEAN_ANOMALY":281.8685,"EPHEMERIS_TYPE":0,"CLASSIFICATION_TYPE":"U","NORAD_CAT_ID":64284,"ELEMENT_SET_NO":999,"REV_AT_EPOCH":3660,"BSTAR":2.9697e-5,"MEAN_MOTION_DOT":2.7e-7,"MEAN_MOTION_DDOT":0},{"OBJECT_NAME":"HULIANWANG DIGUI-32","OBJECT_ID":"2025-121C","EPOCH":"2026-03-06T18:50:28.411584","MEAN_MOTION":13.24425433,"ECCENTRICITY":0.0002009,"INCLINATION":86.4913,"RA_OF_ASC_NODE":47.9841,"ARG_OF_PERICENTER":80.2808,"MEAN_ANOMALY":279.8552,"EPHEMERIS_TYPE":0,"CLASSIFICATION_TYPE":"U","NORAD_CAT_ID":64285,"ELEMENT_SET_NO":999,"REV_AT_EPOCH":3660,"BSTAR":7.6596e-5,"MEAN_MOTION_DOT":4.8e-7,"MEAN_MOTION_DDOT":0}]
